[{"OBJECT_NAME":"STARLINK-34198","OBJECT_ID":"2025-127U","EPOCH":"2025-08-12T10:00:01.999584","MEAN_MOTION":15.27580505,"ECCENTRICITY":0.0001139,"INCLINATION":42.9997,"RA_OF_ASC_NODE":281.2805,"ARG_OF_PERICENTER":260.5911,"MEAN_ANOMALY":174.4667,"EPHEMERIS_TYPE":0,"CLASSIFICATION_TYPE":"U","NORAD_CAT_ID":64388,"ELEMENT_SET_NO":999,"REV_AT_EPOCH":1048,"BSTAR":-0.00020143,"MEAN_MOTION_DOT":-5.801e-5,"MEAN_MOTION_DDOT":0},{"OBJECT_NAME":"STARLINK-34279","OBJECT_ID":"2025-127V","EPOCH":"2025-08-12T04:54:27.596448","MEAN_MOTION":15.27586936,"ECCENTRICITY":4.3e-5,"INCLINATION":42.9979,"RA_OF_ASC_NODE":283.3124,"ARG_OF_PERICENTER":262.1051,"MEAN_ANOMALY":97.9752,"EPHEMERIS_TYPE":0,"CLASSIFICATION_TYPE":"U","NORAD_CAT_ID":64389,"ELEMENT_SET_NO":999,"REV_AT_EPOCH":1043,"BSTAR":0.00069378,"MEAN_MOTION_DOT":0.00018882,"MEAN_MOTION_DDOT":0},{"OBJECT_NAME":"STARLINK-34292","OBJECT_ID":"2025-127W","EPOCH":"2025-08-12T04:23:00.910752","MEAN_MOTION":15.27588953,"ECCENTRICITY":0.0001315,"INCLINATION":42.9989,"RA_OF_ASC_NODE":283.1406,"ARG_OF_PERICENTER":273.4776,"MEAN_ANOMALY":86.5925,"EPHEMERIS_TYPE":0,"CLASSIFICATION_TYPE":"U","NORAD_CAT_ID":64390,"ELEMENT_SET_NO":999,"REV_AT_EPOCH":1043,"BSTAR":0.00081453,"MEAN_MOTION_DOT":0.00022226,"MEAN_MOTION_DDOT":0},{"OBJECT_NAME":"STARLINK-34278","OBJECT_ID":"2025-127X","EPOCH":"2025-08-12T05:05:21.791328","MEAN_MOTION":15.27590497,"ECCENTRICITY":0.0001333,"INCLINATION":43.0006,"RA_OF_ASC_NODE":282.4993,"ARG_OF_PERICENTER":272.1242,"MEAN_ANOMALY":87.9457,"EPHEMERIS_TYPE":0,"CLASSIFICATION_TYPE":"U","NORAD_CAT_ID":64391,"ELEMENT_SET_NO":999,"REV_AT_EPOCH":1043,"BSTAR":0.00075604,"MEAN_MOTION_DOT":0.00020607,"MEAN_MOTION_DDOT":0},{"OBJECT_NAME":"STARLINK-33802","OBJECT_ID":"2025-127Y","EPOCH":"2025-08-12T10:56:16.819872","MEAN_MOTION":15.27616888,"ECCENTRICITY":0.0001411,"INCLINATION":42.9968,"RA_OF_ASC_NODE":281.7551,"ARG_OF_PERICENTER":261.813,"MEAN_ANOMALY":98.2562,"EPHEMERIS_TYPE":0,"CLASSIFICATION_TYPE":"U","NORAD_CAT_ID":64392,"ELEMENT_SET_NO":999,"REV_AT_EPOCH":1052,"BSTAR":0.001098,"MEAN_MOTION_DOT":0.0003011,"MEAN_MOTION_DDOT":0},{"OBJECT_NAME":"STARLINK-34419","OBJECT_ID":"2025-129A","EPOCH":"2025-08-12T10:00:01.999584","MEAN_MOTION":14.99121252,"ECCENTRICITY":0.0002683,"INCLINATION":69.9999,"RA_OF_ASC_NODE":242.28,"ARG_OF_PERICENTER":283.9634,"MEAN_ANOMALY":150.0234,"EPHEMERIS_TYPE":0,"CLASSIFICATION_TYPE":"U","NORAD_CAT_ID":64412,"ELEMENT_SET_NO":999,"REV_AT_EPOCH":993,"BSTAR":0.0026894,"MEAN_MOTION_DOT":0.00032814,"MEAN_MOTION_DDOT":0},{"OBJECT_NAME":"STARLINK-34275","OBJECT_ID":"2025-129B","EPOCH":"2025-08-12T10:00:01.999584","MEAN_MOTION":14.99112227,"ECCENTRICITY":0.0003641,"INCLINATION":69.9998,"RA_OF_ASC_NODE":242.1531,"ARG_OF_PERICENTER":280.4388,"MEAN_ANOMALY":275.0551,"EPHEMERIS_TYPE":0,"CLASSIFICATION_TYPE":"U","NORAD_CAT_ID":64413,"ELEMENT_SET_NO":999,"REV_AT_EPOCH":993,"BSTAR":0.0027067,"MEAN_MOTION_DOT":0.0003302,"MEAN_MOTION_DDOT":0},{"OBJECT_NAME":"STARLINK-34225","OBJECT_ID":"2025-129C","EPOCH":"2025-08-12T10:00:01.999584","MEAN_MOTION":14.99110154,"ECCENTRICITY":0.000331,"INCLINATION":70.0002,"RA_OF_ASC_NODE":242.3295,"ARG_OF_PERICENTER":273.6458,"MEAN_ANOMALY":118.537,"EPHEMERIS_TYPE":0,"CLASSIFICATION_TYPE":"U","NORAD_CAT_ID":64414,"ELEMENT_SET_NO":999,"REV_AT_EPOCH":993,"BSTAR":0.0027214,"MEAN_MOTION_DOT":0.00033199,"MEAN_MOTION_DDOT":0},{"OBJECT_NAME":"STARLINK-34422","OBJECT_ID":"2025-129D","EPOCH":"2025-08-12T06:00:02.000160","MEAN_MOTION":14.9850989,"ECCENTRICITY":0.0003196,"INCLINATION":69.9994,"RA_OF_ASC_NODE":242.6008,"ARG_OF_PERICENTER":295.0905,"MEAN_ANOMALY":53.9157,"EPHEMERIS_TYPE":0,"CLASSIFICATION_TYPE":"U","NORAD_CAT_ID":64415,"ELEMENT_SET_NO":999,"REV_AT_EPOCH":980,"BSTAR":-0.0034128,"MEAN_MOTION_DOT":-0.00040768,"MEAN_MOTION_DDOT":0},{"OBJECT_NAME":"STARLINK-34514","OBJECT_ID":"2025-129E","EPOCH":"2025-08-12T14:00:01.999872","MEAN_MOTION":15.02238108,"ECCENTRICITY":0.0002593,"INCLINATION":69.9979,"RA_OF_ASC_NODE":241.5715,"ARG_OF_PERICENTER":293.4935,"MEAN_ANOMALY":224.8848,"EPHEMERIS_TYPE":0,"CLASSIFICATION_TYPE":"U","NORAD_CAT_ID":64416,"ELEMENT_SET_NO":999,"REV_AT_EPOCH":996,"BSTAR":-0.26246,"MEAN_MOTION_DOT":-0.03079271,"MEAN_MOTION_DDOT":0},{"OBJECT_NAME":"STARLINK-34487","OBJECT_ID":"2025-129F","EPOCH":"2025-08-12T10:00:01.999584","MEAN_MOTION":14.99183844,"ECCENTRICITY":0.0003373,"INCLINATION":69.999,"RA_OF_ASC_NODE":242.0044,"ARG_OF_PERICENTER":281.0737,"MEAN_ANOMALY":38.7243,"EPHEMERIS_TYPE":0,"CLASSIFICATION_TYPE":"U","NORAD_CAT_ID":64417,"ELEMENT_SET_NO":999,"REV_AT_EPOCH":983,"BSTAR":0.0022828,"MEAN_MOTION_DOT":0.00027865,"MEAN_MOTION_DDOT":0},{"OBJECT_NAME":"STARLINK-34461","OBJECT_ID":"2025-129G","EPOCH":"2025-08-12T12:00:00.999648","MEAN_MOTION":14.99121258,"ECCENTRICITY":0.0003597,"INCLINATION":70.0003,"RA_OF_ASC_NODE":242.0756,"ARG_OF_PERICENTER":275.9856,"MEAN_ANOMALY":246.866,"EPHEMERIS_TYPE":0,"CLASSIFICATION_TYPE":"U","NORAD_CAT_ID":64418,"ELEMENT_SET_NO":999,"REV_AT_EPOCH":994,"BSTAR":0.0036583,"MEAN_MOTION_DOT":0.00044748,"MEAN_MOTION_DDOT":0},{"OBJECT_NAME":"STARLINK-34512","OBJECT_ID":"2025-129H","EPOCH":"2025-08-12T10:00:01.999584","MEAN_MOTION":14.99127167,"ECCENTRICITY":0.0003632,"INCLINATION":69.9997,"RA_OF_ASC_NODE":242.2211,"ARG_OF_PERICENTER":271.4869,"MEAN_ANOMALY":219.3116,"EPHEMERIS_TYPE":0,"CLASSIFICATION_TYPE":"U","NORAD_CAT_ID":64419,"ELEMENT_SET_NO":999,"REV_AT_EPOCH":977,"BSTAR":0.0025288,"MEAN_MOTION_DOT":0.00030846,"MEAN_MOTION_DDOT":0},{"OBJECT_NAME":"STARLINK-34503","OBJECT_ID":"2025-129J","EPOCH":"2025-08-12T10:00:01.999584","MEAN_MOTION":14.99122413,"ECCENTRICITY":0.0003693,"INCLINATION":70.0002,"RA_OF_ASC_NODE":242.2494,"ARG_OF_PERICENTER":276.5436,"MEAN_ANOMALY":189.5906,"EPHEMERIS_TYPE":0,"CLASSIFICATION_TYPE":"U","NORAD_CAT_ID":64420,"ELEMENT_SET_NO":999,"REV_AT_EPOCH":977,"BSTAR":0.0025143,"MEAN_MOTION_DOT":0.00030664,"MEAN_MOTION_DDOT":0},{"OBJECT_NAME":"STARLINK-34498","OBJECT_ID":"2025-129K","EPOCH":"2025-08-12T06:00:02.000160","MEAN_MOTION":14.99210354,"ECCENTRICITY":0.0003127,"INCLINATION":70.0001,"RA_OF_ASC_NODE":242.5839,"ARG_OF_PERICENTER":276.5791,"MEAN_ANOMALY":83.7884,"EPHEMERIS_TYPE":0,"CLASSIFICATION_TYPE":"U","NORAD_CAT_ID":64421,"ELEMENT_SET_NO":999,"REV_AT_EPOCH":991,"BSTAR":-0.00275,"MEAN_MOTION_DOT":-0.00033504,"MEAN_MOTION_DDOT":0},{"OBJECT_NAME":"STARLINK-34434","OBJECT_ID":"2025-129L","EPOCH":"2025-08-12T06:00:02.000160","MEAN_MOTION":14.98347461,"ECCENTRICITY":0.0003446,"INCLINATION":70.0088,"RA_OF_ASC_NODE":242.7044,"ARG_OF_PERICENTER":273.175,"MEAN_ANOMALY":346.1721,"EPHEMERIS_TYPE":0,"CLASSIFICATION_TYPE":"U","NORAD_CAT_ID":64422,"ELEMENT_SET_NO":999,"REV_AT_EPOCH":990,"BSTAR":-0.0033559,"MEAN_MOTION_DOT":-0.00039927,"MEAN_MOTION_DDOT":0}]
