STARLINK-34198          
1 64388U 25127U   25224.41668981 -.00005801  00000+0 -20143-3 0  9992
2 64388  42.9997 281.2805 0001139 260.5911 174.4667 15.27580505 10481
STARLINK-34279          
1 64389U 25127V   25224.20448607  .00018882  00000+0  69378-3 0  9995
2 64389  42.9979 283.3124 0000430 262.1051  97.9752 15.27586936 10438
STARLINK-34292          
1 64390U 25127W   25224.18264943  .00022226  00000+0  81453-3 0  9998
2 64390  42.9989 283.1406 0001315 273.4776  86.5925 15.27588953 10431
STARLINK-34278          
1 64391U 25127X   25224.21205777  .00020607  00000+0  75604-3 0  9995
2 64391  43.0006 282.4993 0001333 272.1242  87.9457 15.27590497 10432
STARLINK-33802          
1 64392U 25127Y   25224.45575023  .00030110  00000+0  10980-2 0  9991
2 64392  42.9968 281.7551 0001411 261.8130  98.2562 15.27616888 10523
STARLINK-34419          
1 64412U 25129A   25224.41668981  .00032814  00000+0  26894-2 0  9992
2 64412  69.9999 242.2800 0002683 283.9634 150.0234 14.99121252  9934
STARLINK-34275          
1 64413U 25129B   25224.41668981  .00033020  00000+0  27067-2 0  9996
2 64413  69.9998 242.1531 0003641 280.4388 275.0551 14.99112227  9939
STARLINK-34225          
1 64414U 25129C   25224.41668981  .00033199  00000+0  27214-2 0  9998
2 64414  70.0002 242.3295 0003310 273.6458 118.5370 14.99110154  9930
STARLINK-34422          
1 64415U 25129D   25224.25002315 -.00040768  00000+0 -34128-2 0  9998
2 64415  69.9994 242.6008 0003196 295.0905  53.9157 14.98509890  9809
STARLINK-34514          
1 64416U 25129E   25224.58335648 -.03079271  00000+0 -26246+0 0  9996
2 64416  69.9979 241.5715 0002593 293.4935 224.8848 15.02238108  9961
STARLINK-34487          
1 64417U 25129F   25224.41668981  .00027865  00000+0  22828-2 0  9990
2 64417  69.9990 242.0044 0003373 281.0737  38.7243 14.99183844  9834
STARLINK-34461          
1 64418U 25129G   25224.50001157  .00044748  00000+0  36583-2 0  9999
2 64418  70.0003 242.0756 0003597 275.9856 246.8660 14.99121258  9943
STARLINK-34512          
1 64419U 25129H   25224.41668981  .00030846  00000+0  25288-2 0  9998
2 64419  69.9997 242.2211 0003632 271.4869 219.3116 14.99127167  9773
STARLINK-34503          
1 64420U 25129J   25224.41668981  .00030664  00000+0  25143-2 0  9998
2 64420  70.0002 242.2494 0003693 276.5436 189.5906 14.99122413  9775
STARLINK-34498          
1 64421U 25129K   25224.25002315 -.00033504  00000+0 -27500-2 0  9991
2 64421  70.0001 242.5839 0003127 276.5791  83.7884 14.99210354  9915
STARLINK-34434          
1 64422U 25129L   25224.25002315 -.00039927  00000+0 -33559-2 0  9998
2 64422  70.0088 242.7044 0003446 273.1750 346.1721 14.98347461  9907
